OBJECT_NAME,OBJECT_ID,EPOCH,MEAN_MOTION,ECCENTRICITY,INCLINATION,RA_OF_ASC_NODE,ARG_OF_PERICENTER,MEAN_ANOMALY,EPHEMERIS_TYPE,CLASSIFICATION_TYPE,NORAD_CAT_ID,ELEMENT_SET_NO,REV_AT_EPOCH,BSTAR,MEAN_MOTION_DOT,MEAN_MOTION_DDOT
ALOS-2,2014-029A,2026-06-17T14:42:08.754912,14.79470128,.00016403,97.9226,265.7699,89.8466,270.2934,0,U,39766,999,65164,.12750113E-3,.901E-5,0
KAZEOSAT 2,2014-033A,2026-06-17T13:36:14.917248,14.85469285,.00078427,97.5398,8.1582,327.9372,32.1366,0,U,40010,999,64901,.51317135E-4,.393E-5,0
HODOYOSHI-4,2014-033B,2026-06-17T13:43:40.045728,14.88126368,.00225301,97.5445,353.3755,307.1687,52.7472,0,U,40011,999,64886,.30570043E-4,.23E-5,0
DEIMOS-2,2014-033D,2026-06-17T14:02:31.077024,14.93723985,.00013536,97.5824,43.0598,49.7151,310.4187,0,U,40013,999,63778,.86359462E-4,.86E-5,0
HODOYOSHI-3,2014-033F,2026-06-17T10:54:26.245152,14.85389004,.00326687,97.6417,331.4841,356.4429,3.6549,0,U,40015,999,64766,.98330662E-4,.801E-5,0
SPOT 7,2014-034A,2026-06-17T14:13:13.021248,14.60959501,.00012282,98.0630,231.0739,91.4945,268.6397,0,U,40053,999,63719,.11931377E-3,.539E-5,0
SKYSAT-B,2014-037D,2026-06-17T11:04:20.938080,14.88028421,.00041903,98.3840,127.4419,280.7162,79.3581,0,U,40072,999,64600,.12166898E-3,.1056E-4,0
WORLDVIEW-3 (WV-3),2014-048A,2026-06-17T13:43:10.227360,14.85022517,.00009538,97.8567,243.3992,25.6684,334.4578,0,U,40115,999,64196,.84418725E-4,.667E-5,0
GAOFEN-2,2014-049A,2026-06-17T13:57:43.689888,14.80897646,.00061191,98.0111,232.7884,225.6651,134.4060,0,U,40118,999,63929,.26182973E-4,.149E-5,0
YAOGAN-21,2014-053A,2026-06-17T14:54:58.298112,15.26382201,.00099968,97.1466,208.8385,91.7942,268.4442,0,U,40143,999,65502,.30581396E-3,.7897E-4,0
YAOGAN-22,2014-063A,2026-06-17T09:55:55.884000,13.15531084,.0006345,100.7724,319.6908,184.7554,175.3498,0,U,40275,999,55984,-.44091034E-4,-.63E-6,0
ASNARO,2014-070A,2026-06-17T14:53:12.285312,15.19445704,.00056731,97.3452,244.7234,164.1414,196.0000,0,U,40298,999,64407,.48208069E-3,.10162E-3,0
YAOGAN-24,2014-072A,2026-06-17T14:59:03.607584,14.76224646,.00125125,98.1493,305.9659,262.0080,97.9709,0,U,40310,999,62378,.13448911E-3,.878E-5,0
CBERS 4,2014-079A,2026-06-17T14:16:33.083040,14.35510202,.00018482,98.3531,225.4137,62.9288,297.2086,0,U,40336,999,60401,.14390925E-3,.372E-5,0
YAOGAN-26,2014-088A,2026-06-17T15:37:19.476768,15.47361631,.00059548,97.0638,168.8484,66.4961,293.6916,0,U,40362,999,63777,.27129054E-3,.13795E-3,0
SMAP,2015-003A,2026-06-17T13:24:16.718112,14.63366870,.00013326,98.1276,175.6478,96.9015,263.2339,0,U,40376,999,60767,.71923756E-4,.325E-5,0
KOMPSAT-3A,2015-014A,2026-06-17T15:04:37.411392,15.54009676,.00565106,97.6887,160.0227,172.8913,187.3154,0,U,40536,999,62188,.29003685E-3,.20024E-3,0
SENTINEL-2A,2015-028A,2026-06-17T15:13:21.084384,14.30815799,.00011121,98.5688,243.4795,89.8633,270.2678,0,U,40697,999,57379,.92004122E-4,.198E-5,0
GAOFEN-8,2015-030A,2026-06-17T14:32:01.883904,15.45969866,.00086972,97.6897,2.0007,184.9332,175.1832,0,U,40701,999,61151,.42372143E-3,.20607E-3,0
CARBONITE 1 (CBNT-1),2015-032D,2026-06-17T14:05:32.836704,14.83588417,.0013148,97.6500,346.6362,296.7079,63.2790,0,U,40718,999,58940,.18916892E-3,.151E-4,0
YAOGAN-27,2015-040A,2026-06-17T15:16:53.307840,13.16069768,.00076723,100.1147,155.0000,209.4046,150.6637,0,U,40878,999,51772,.56219184E-3,.171E-5,0
GAOFEN-9 01,2015-047A,2026-06-17T14:27:27.571680,14.82884558,.00284264,97.6275,204.2784,136.4977,223.8487,0,U,40894,999,58025,.10476261E-3,.804E-5,0
YAOGAN-28,2015-064A,2026-06-17T14:02:06.886752,15.27425469,.00106587,97.3080,306.8377,181.8679,178.2522,0,U,41026,999,59074,.2240083E-3,.5949E-4,0
YAOGAN-29,2015-069A,2026-06-17T13:58:58.310976,14.83088418,.00026262,98.0020,197.2163,54.6902,305.4557,0,U,41038,999,57068,.13617596E-3,.1055E-4,0
KENT RIDGE 1,2015-077B,2026-06-16T21:38:07.994688,15.23131198,.00082355,14.9789,268.1169,234.6113,125.3439,0,U,41167,999,58105,.11247934E-3,.35E-4,0
GAOFEN-4,2015-083A,2026-06-17T15:32:35.193984,1.00268400,.00043822,0.3588,83.7594,115.4737,45.4945,0,U,41194,999,3853,0,-.339E-5,0
JASON-3,2016-002A,2026-06-17T13:06:42.000480,12.87628068,.00085123,66.0403,125.0799,272.7892,87.2152,0,U,41240,999,48729,.24607905E-4,-.56E-6,0
SENTINEL-3A,2016-011A,2026-06-17T13:36:46.292544,14.26740096,.00014079,98.6250,235.9454,101.9837,258.1501,0,U,41335,999,53811,.54569134E-4,.88E-6,0
ZIYUAN 3-02 (ZY 3-02),2016-033A,2026-06-17T15:36:05.691168,15.21485216,.00111549,97.3834,244.4165,287.7745,72.2274,0,U,41556,999,55805,.18187121E-3,.4027E-4,0
CARTOSAT-2C,2016-040A,2026-06-17T14:05:55.908096,15.19196175,.00099868,97.4478,228.5611,128.9889,231.2237,0,U,41599,999,55377,.23885444E-3,.4964E-4,0
