ALOS-2                  
1 39766U 14029A   26168.61260133  .00000901  00000+0  12750-3 0  9999
2 39766  97.9226 265.7699 0001640  89.8466 270.2934 14.79470128651646
KAZEOSAT 2              
1 40010U 14033A   26168.56683932  .00000393  00000+0  51317-4 0  9996
2 40010  97.5398   8.1582 0007842 327.9372  32.1366 14.85469285649019
HODOYOSHI-4             
1 40011U 14033B   26168.57199127  .00000230  00000+0  30570-4 0  9994
2 40011  97.5445 353.3755 0022530 307.1687  52.7472 14.88126368648863
DEIMOS-2                
1 40013U 14033D   26168.58508191  .00000860  00000+0  86359-4 0  9997
2 40013  97.5824  43.0598 0001353  49.7151 310.4187 14.93723985637789
HODOYOSHI-3             
1 40015U 14033F   26168.45447043  .00000801  00000+0  98331-4 0  9991
2 40015  97.6417 331.4841 0032668 356.4429   3.6549 14.85389004647666
SPOT 7                  
1 40053U 14034A   26168.59251182  .00000539  00000+0  11931-3 0  9994
2 40053  98.0630 231.0739 0001228  91.4945 268.6397 14.60959501637197
SKYSAT-B                
1 40072U 14037D   26168.46135345  .00001056  00000+0  12167-3 0  9993
2 40072  98.3840 127.4419 0004190 280.7162  79.3581 14.88028421646002
WORLDVIEW-3 (WV-3)      
1 40115U 14048A   26168.57164615  .00000667  00000+0  84419-4 0  9994
2 40115  97.8567 243.3992 0000953  25.6684 334.4578 14.85022517641960
GAOFEN-2                
1 40118U 14049A   26168.58175567  .00000149  00000+0  26183-4 0  9996
2 40118  98.0111 232.7884 0006119 225.6651 134.4060 14.80897646639294
YAOGAN-21               
1 40143U 14053A   26168.62150808  .00007897  00000+0  30581-3 0  9998
2 40143  97.1466 208.8385 0009996  91.7942 268.4442 15.26382201655024
YAOGAN-22               
1 40275U 14063A   26168.41384125 -.00000063  00000+0 -44091-4 0  9995
2 40275 100.7724 319.6908 0006345 184.7554 175.3498 13.15531084559848
ASNARO                  
1 40298U 14070A   26168.62028108  .00010162  00000+0  48208-3 0  9999
2 40298  97.3452 244.7234 0005673 164.1414 196.0000 15.19445704644070
YAOGAN-24               
1 40310U 14072A   26168.62434731  .00000878  00000+0  13449-3 0  9991
2 40310  98.1493 305.9659 0012512 262.0080  97.9709 14.76224646623789
CBERS 4                 
1 40336U 14079A   26168.59482735  .00000372  00000+0  14391-3 0  9995
2 40336  98.3531 225.4137 0001848  62.9288 297.2086 14.35510202604015
YAOGAN-26               
1 40362U 14088A   26168.65091987  .00013795  00000+0  27129-3 0  9992
2 40362  97.0638 168.8484 0005954  66.4961 293.6916 15.47361631637777
SMAP                    
1 40376U 15003A   26168.55852683  .00000325  00000+0  71924-4 0  9990
2 40376  98.1276 175.6478 0001332  96.9015 263.2339 14.63366870607670
KOMPSAT-3A              
1 40536U 15014A   26168.62821078  .00020024  00000+0  29004-3 0  9991
2 40536  97.6887 160.0227 0056510 172.8913 187.3154 15.54009676621888
SENTINEL-2A             
1 40697U 15028A   26168.63427181  .00000198  00000+0  92004-4 0  9993
2 40697  98.5688 243.4795 0001112  89.8633 270.2678 14.30815799573798
GAOFEN-8                
1 40701U 15030A   26168.60557736  .00020607  00000+0  42372-3 0  9998
2 40701  97.6897   2.0007 0008697 184.9332 175.1832 15.45969866611519
CARBONITE 1 (CBNT-1)    
1 40718U 15032D   26168.58718561  .00001510  00000+0  18917-3 0  9990
2 40718  97.6500 346.6362 0013148 296.7079  63.2790 14.83588417589408
YAOGAN-27               
1 40878U 15040A   26168.63672810  .00000171  00000+0  56219-3 0  9997
2 40878 100.1147 155.0000 0007672 209.4046 150.6637 13.16069768517728
GAOFEN-9 01             
1 40894U 15047A   26168.60240245  .00000804  00000+0  10476-3 0  9990
2 40894  97.6275 204.2784 0028426 136.4977 223.8487 14.82884558580256
YAOGAN-28               
1 41026U 15064A   26168.58480193  .00005949  00000+0  22401-3 0  9998
2 41026  97.3080 306.8377 0010658 181.8679 178.2522 15.27425469590743
YAOGAN-29               
1 41038U 15069A   26168.58261934  .00001055  00000+0  13618-3 0  9990
2 41038  98.0020 197.2163 0002626  54.6902 305.4557 14.83088418570688
KENT RIDGE 1            
1 41167U 15077B   26167.90148142  .00003500  00000+0  11248-3 0  9996
2 41167  14.9789 268.1169 0008235 234.6113 125.3439 15.23131198581050
GAOFEN-4                
1 41194U 15083A   26168.64762956 -.00000339  00000+0  00000+0 0  9998
2 41194   0.3588  83.7594 0004382 115.4737  45.4945  1.00268400 38537
JASON-3                 
1 41240U 16002A   26168.54631945 -.00000056  00000+0  24608-4 0  9995
2 41240  66.0403 125.0799 0008512 272.7892  87.2152 12.87628068487291
SENTINEL-3A             
1 41335U 16011A   26168.56720246  .00000088  00000+0  54569-4 0  9998
2 41335  98.6250 235.9454 0001407 101.9837 258.1501 14.26740096538110
ZIYUAN 3-02 (ZY 3-02)   
1 41556U 16033A   26168.65006587  .00004027  00000+0  18187-3 0  9994
2 41556  97.3834 244.4165 0011154 287.7745  72.2274 15.21485216558057
CARTOSAT-2C             
1 41599U 16040A   26168.58745264  .00004964  00000+0  23885-3 0  9994
2 41599  97.4478 228.5611 0009986 128.9889 231.2237 15.19196175553773
